{
  "type": "FeatureCollection",
  "features": [
    {
      "type": "Feature",
      "properties": {
        "norad_id": 66835,
        "name": "STARLINK-35890",
        "group": "last-30-days",
        "lat": 21.496986705520687,
        "lon": 167.63490682543457,
        "alt_km": 409.37233427640786,
        "timestamp": "2025-12-26T23:26:40.921890+00:00",
        "meta_object_name": "STARLINK-35890",
        "meta_object_id": "2025-280Q",
        "meta_epoch": "2025-12-26T18:42:26.212320",
        "meta_mean_motion": 15.52550895,
        "meta_eccentricity": 0.0003392,
        "meta_inclination": 70.0007,
        "meta_ra_of_asc_node": 159.928,
        "meta_arg_of_pericenter": 271.2438,
        "meta_mean_anomaly": 88.836,
        "meta_ephemeris_type": 0,
        "meta_classification_type": "U",
        "meta_norad_cat_id": 66835,
        "meta_element_set_no": 999,
        "meta_rev_at_epoch": 511,
        "meta_bstar": 0.0011939,
        "meta_mean_motion_dot": 0.00074053,
        "meta_mean_motion_ddot": 0,
        "tle_line1": "1 66835U 25280Q   25360.77947005  .00074053  00000+0  11939-2 0  9993",
        "tle_line2": "2 66835  70.0007 159.9280 0003392 271.2438  88.8360 15.52550895  5117"
      },
      "geometry": {
        "type": "Point",
        "coordinates": [
          167.63490682543457,
          21.496986705520687
        ]
      }
    },
    {
      "type": "Feature",
      "properties": {
        "norad_id": 66836,
        "name": "STARLINK-35838",
        "group": "last-30-days",
        "lat": 23.297326428471862,
        "lon": 168.4084769429122,
        "alt_km": 409.0378851182395,
        "timestamp": "2025-12-26T23:26:40.921899+00:00",
        "meta_object_name": "STARLINK-35838",
        "meta_object_id": "2025-280R",
        "meta_epoch": "2025-12-26T17:09:09.872640",
        "meta_mean_motion": 15.52556408,
        "meta_eccentricity": 0.0003499,
        "meta_inclination": 70.0008,
        "meta_ra_of_asc_node": 160.103,
        "meta_arg_of_pericenter": 273.1058,
        "meta_mean_anomaly": 86.9728,
        "meta_ephemeris_type": 0,
        "meta_classification_type": "U",
        "meta_norad_cat_id": 66836,
        "meta_element_set_no": 999,
        "meta_rev_at_epoch": 510,
        "meta_bstar": 0.0015917,
        "meta_mean_motion_dot": 0.00099122,
        "meta_mean_motion_ddot": 0,
        "tle_line1": "1 66836U 25280R   25360.71469760  .00099122  00000+0  15917-2 0  9999",
        "tle_line2": "2 66836  70.0008 160.1030 0003499 273.1058  86.9728 15.52556408  5105"
      },
      "geometry": {
        "type": "Point",
        "coordinates": [
          168.4084769429122,
          23.297326428471862
        ]
      }
    },
    {
      "type": "Feature",
      "properties": {
        "norad_id": 66837,
        "name": "STARLINK-35729",
        "group": "last-30-days",
        "lat": 25.89685223853337,
        "lon": 169.5671706960565,
        "alt_km": 406.48663668331847,
        "timestamp": "2025-12-26T23:26:40.921911+00:00",
        "meta_object_name": "STARLINK-35729",
        "meta_object_id": "2025-280S",
        "meta_epoch": "2025-12-26T12:30:17.392032",
        "meta_mean_motion": 15.52817833,
        "meta_eccentricity": 0.0003286,
        "meta_inclination": 70.0008,
        "meta_ra_of_asc_node": 160.6309,
        "meta_arg_of_pericenter": 288.0168,
        "meta_mean_anomaly": 72.066,
        "meta_ephemeris_type": 0,
        "meta_classification_type": "U",
        "meta_norad_cat_id": 66837,
        "meta_element_set_no": 999,
        "meta_rev_at_epoch": 507,
        "meta_bstar": 0.0063216,
        "meta_mean_motion_dot": 0.0041412,
        "meta_mean_motion_ddot": 0,
        "tle_line1": "1 66837U 25280S   25360.52103463  .00414120  00000+0  63216-2 0  9998",
        "tle_line2": "2 66837  70.0008 160.6309 0003286 288.0168  72.0660 15.52817833  5070"
      },
      "geometry": {
        "type": "Point",
        "coordinates": [
          169.5671706960565,
          25.89685223853337
        ]
      }
    },
    {
      "type": "Feature",
      "properties": {
        "norad_id": 66838,
        "name": "STARLINK-35886",
        "group": "last-30-days",
        "lat": 28.59646799099667,
        "lon": 170.82998387530523,
        "alt_km": 408.48781724221953,
        "timestamp": "2025-12-26T23:26:40.921921+00:00",
        "meta_object_name": "STARLINK-35886",
        "meta_object_id": "2025-280T",
        "meta_epoch": "2025-12-26T17:07:40.939392",
        "meta_mean_motion": 15.52541017,
        "meta_eccentricity": 0.000342,
        "meta_inclination": 70.0009,
        "meta_ra_of_asc_node": 160.0986,
        "meta_arg_of_pericenter": 272.8203,
        "meta_mean_anomaly": 87.2592,
        "meta_ephemeris_type": 0,
        "meta_classification_type": "U",
        "meta_norad_cat_id": 66838,
        "meta_element_set_no": 999,
        "meta_rev_at_epoch": 510,
        "meta_bstar": 0.0009115,
        "meta_mean_motion_dot": 0.00056353,
        "meta_mean_motion_ddot": 0,
        "tle_line1": "1 66838U 25280T   25360.71366828  .00056353  00000+0  91150-3 0  9995",
        "tle_line2": "2 66838  70.0009 160.0986 0003420 272.8203  87.2592 15.52541017  5102"
      },
      "geometry": {
        "type": "Point",
        "coordinates": [
          170.82998387530523,
          28.59646799099667
        ]
      }
    },
    {
      "type": "Feature",
      "properties": {
        "norad_id": 66839,
        "name": "STARLINK-35717",
        "group": "last-30-days",
        "lat": 26.842986841145546,
        "lon": 170.00156244294266,
        "alt_km": 408.5002916417061,
        "timestamp": "2025-12-26T23:26:40.921930+00:00",
        "meta_object_name": "STARLINK-35717",
        "meta_object_id": "2025-280U",
        "meta_epoch": "2025-12-26T17:08:10.574592",
        "meta_mean_motion": 15.52552146,
        "meta_eccentricity": 0.0003396,
        "meta_inclination": 70.0007,
        "meta_ra_of_asc_node": 160.0996,
        "meta_arg_of_pericenter": 276.4872,
        "meta_mean_anomaly": 83.5928,
        "meta_ephemeris_type": 0,
        "meta_classification_type": "U",
        "meta_norad_cat_id": 66839,
        "meta_element_set_no": 999,
        "meta_rev_at_epoch": 510,
        "meta_bstar": 0.0012353,
        "meta_mean_motion_dot": 0.00076659,
        "meta_mean_motion_ddot": 0,
        "tle_line1": "1 66839U 25280U   25360.71401128  .00076659  00000+0  12353-2 0  9997",
        "tle_line2": "2 66839  70.0007 160.0996 0003396 276.4872  83.5928 15.52552146  5103"
      },
      "geometry": {
        "type": "Point",
        "coordinates": [
          170.00156244294266,
          26.842986841145546
        ]
      }
    },
    {
      "type": "Feature",
      "properties": {
        "norad_id": 66840,
        "name": "STARLINK-35837",
        "group": "last-30-days",
        "lat": 30.4128945231076,
        "lon": 171.72080065408522,
        "alt_km": 408.043185405596,
        "timestamp": "2025-12-26T23:26:40.921938+00:00",
        "meta_object_name": "STARLINK-35837",
        "meta_object_id": "2025-280V",
        "meta_epoch": "2025-12-26T15:34:24.439872",
        "meta_mean_motion": 15.52562565,
        "meta_eccentricity": 0.000336,
        "meta_inclination": 70.0008,
        "meta_ra_of_asc_node": 160.274,
        "meta_arg_of_pericenter": 274.1986,
        "meta_mean_anomaly": 85.8817,
        "meta_ephemeris_type": 0,
        "meta_classification_type": "U",
        "meta_norad_cat_id": 66840,
        "meta_element_set_no": 999,
        "meta_rev_at_epoch": 509,
        "meta_bstar": 0.0015409,
        "meta_mean_motion_dot": 0.0009593,
        "meta_mean_motion_ddot": 0,
        "tle_line1": "1 66840U 25280V   25360.64889398  .00095930  00000+0  15409-2 0  9998",
        "tle_line2": "2 66840  70.0008 160.2740 0003360 274.1986  85.8817 15.52562565  5093"
      },
      "geometry": {
        "type": "Point",
        "coordinates": [
          171.72080065408522,
          30.4128945231076
        ]
      }
    },
    {
      "type": "Feature",
      "properties": {
        "norad_id": 66841,
        "name": "STARLINK-35715",
        "group": "last-30-days",
        "lat": 32.14382442075307,
        "lon": 172.60501133470044,
        "alt_km": 407.8870172625702,
        "timestamp": "2025-12-26T23:26:40.921947+00:00",
        "meta_object_name": "STARLINK-35715",
        "meta_object_id": "2025-280W",
        "meta_epoch": "2025-12-26T17:06:41.618016",
        "meta_mean_motion": 15.5255414,
        "meta_eccentricity": 0.0003469,
        "meta_inclination": 70.0009,
        "meta_ra_of_asc_node": 160.0976,
        "meta_arg_of_pericenter": 274.8834,
        "meta_mean_anomaly": 85.1957,
        "meta_ephemeris_type": 0,
        "meta_classification_type": "U",
        "meta_norad_cat_id": 66841,
        "meta_element_set_no": 999,
        "meta_rev_at_epoch": 510,
        "meta_bstar": 0.001662,
        "meta_mean_motion_dot": 0.00103552,
        "meta_mean_motion_ddot": 0,
        "tle_line1": "1 66841U 25280W   25360.71298169  .00103552  00000+0  16620-2 0  9993",
        "tle_line2": "2 66841  70.0009 160.0976 0003469 274.8834  85.1957 15.52554140  5103"
      },
      "geometry": {
        "type": "Point",
        "coordinates": [
          172.60501133470044,
          32.14382442075307
        ]
      }
    }
  ]
}